[{"OBJECT_NAME":"STARLINK-35201","OBJECT_ID":"2025-211N","EPOCH":"2026-03-09T16:36:10.677600","MEAN_MOTION":15.05678627,"ECCENTRICITY":0.00012095,"INCLINATION":97.602,"RA_OF_ASC_NODE":114.091,"ARG_OF_PERICENTER":89.6272,"MEAN_ANOMALY":270.5094,"EPHEMERIS_TYPE":0,"CLASSIFICATION_TYPE":"U","NORAD_CAT_ID":65664,"ELEMENT_SET_NO":999,"REV_AT_EPOCH":2704,"BSTAR":0.00061175801,"MEAN_MOTION_DOT":8.784e-5,"MEAN_MOTION_DDOT":0},{"OBJECT_NAME":"PEGASUS R\/B","OBJECT_ID":"2019-068B","EPOCH":"2026-03-09T22:22:48.049248","MEAN_MOTION":15.04682366,"ECCENTRICITY":0.00118062,"INCLINATION":26.9924,"RA_OF_ASC_NODE":328.8145,"ARG_OF_PERICENTER":174.3111,"MEAN_ANOMALY":185.7586,"EPHEMERIS_TYPE":0,"CLASSIFICATION_TYPE":"U","NORAD_CAT_ID":44629,"ELEMENT_SET_NO":999,"REV_AT_EPOCH":35103,"BSTAR":0.00027730034,"MEAN_MOTION_DOT":4.233e-5,"MEAN_MOTION_DDOT":0}]
